QIANFAN-60              
1 62790U 25016F   25214.52053993  .00000051  00000+0  59835-4 0  9997
2 62790  88.9827 116.7472 0016334  13.7259 346.4333 13.50957036 29376
QIANFAN-61              
1 62791U 25016G   25214.16277337  .00000134  00000+0  18873-3 0  9996
2 62791  88.9896 116.8516 0015766  13.7249 346.4327 13.50957813 29343
QIANFAN-62              
1 62792U 25016H   25214.46297273  .00000132  00000+0  18602-3 0  9999
2 62792  88.9842 116.7610 0017150  12.6085 347.5491 13.50956831 29370
QIANFAN-63              
1 62793U 25016J   25214.47532968  .00000131  00000+0  18496-3 0  9994
2 62793  88.9848 116.6995 0017094  16.8899 343.2818 13.50953994 29416
QIANFAN-64              
1 62794U 25016K   25213.87453773  .00000075  00000+0  96904-4 0  9992
2 62794  88.9836 116.7590 0014811  13.5887 346.5660 13.50956270 29322
QIANFAN-65              
1 62795U 25016L   25214.52480565  .00000126  00000+0  17700-3 0  9998
2 62795  88.9831 116.7201 0014978  13.4964 346.6585 13.50960452 29397
QIANFAN-66              
1 62796U 25016M   25213.88687153  .00000139  00000+0  19743-3 0  9992
2 62796  88.9851 116.7296 0016004  10.5690 349.5795 13.50955354 29356
QIANFAN-67              
1 62797U 25016N   25213.89112545  .00000113  00000+0  15600-3 0  9992
2 62797  88.9842 116.7677 0016217  16.9338 343.2351 13.50964050 29324
QIANFAN-68              
1 62798U 25016P   25214.19143618  .00000129  00000+0  18128-3 0  9997
2 62798  88.9845 116.7804 0016754  14.2365 345.9255 13.50961603 29342
QIANFAN-69              
1 62799U 25016Q   25213.89922952  .00000102  00000+0  13886-3 0  9997
2 62799  88.9824 116.7054 0016979  15.9334 344.2347 13.50957057 29342
QIANFAN-70              
1 62800U 25016R   25214.21203012  .00000137  00000+0  19320-3 0  9993
2 62800  88.9845 116.7836 0016211   6.2439 353.8911 13.50961030 29343
QIANFAN-71              
1 62801U 25016S   25214.20799802  .00000135  00000+0  19029-3 0  9994
2 62801  88.9839 116.7716 0016979  18.3745 341.8016 13.50960838 29347
QIANFAN-72              
1 62802U 25016T   25214.20372755  .00000128  00000+0  17927-3 0  9996
2 62802  88.9828 116.7936 0020568  23.3285 336.8795 13.50956223 29334
QIANFAN-73              
1 63159U 25046A   25214.17737392  .00000142  00000+0  20160-3 0  9992
2 63159  88.9858 333.6822 0016460 142.6265 217.6035 13.50958646 29510
QIANFAN-74              
1 63160U 25046B   25214.45722548  .00000150  00000+0  21456-3 0  9990
2 63160  88.9858 333.5421 0001959 102.5219 257.6151 13.50963264 29613
QIANFAN-75              
1 63161U 25046C   25213.77830579  .00000162  00000+0  23179-3 0  9996
2 63161  88.9859 333.8434 0017538 146.8146 213.4109 13.50959524 29394
QIANFAN-76              
1 63162U 25046D   25213.84808371  .00000180  00000+0  26065-3 0  9997
2 63162  88.9859 333.8175 0015107 146.4577 213.7534 13.50955606 29416
QIANFAN-77              
1 63163U 25046E   25214.15887473  .00000347  00000+0  24352-3 0  9995
2 63163  88.9856 332.8793 0016645 130.5621 229.7008 13.96005725 29951
QIANFAN-78              
1 63164U 25046F   25214.48189336  .00000158  00000+0  22596-3 0  9993
2 63164  88.9858 333.6180 0016465 147.4113 212.8058 13.50959114 29572
QIANFAN-79              
1 63165U 25046G   25213.84402346  .00000177  00000+0  25542-3 0  9997
2 63165  88.9862 333.7856 0016137 147.4429 212.7720 13.50961047 29433
QIANFAN-80              
1 63166U 25046H   25213.86059609  .00000146  00000+0  20696-3 0  9991
2 63166  88.9859 333.4946 0015031 150.9834 209.2156 13.50961248 29592
QIANFAN-81              
1 63167U 25046J   25214.13624720  .00000151  00000+0  21477-3 0  9999
2 63167  88.9859 333.5347 0016302 140.0264 220.2090 13.50960175 29585
QIANFAN-82              
1 63168U 25046K   25214.16901990  .00000084  00000+0  11194-3 0  9990
2 63168  88.9858 333.5749 0014304 146.5199 213.6859 13.50957025 29577
QIANFAN-83              
1 63169U 25046L   25214.16274295  .00000183  00000+0  22124-3 0  9997
2 63169  88.9858 333.6114 0015721 140.0359 220.1959 13.61930962 29562
QIANFAN-84              
1 63170U 25046M   25214.49415127  .00000161  00000+0  22984-3 0  9996
2 63170  88.9859 333.6747 0017341 143.2745 216.9598 13.50963995 29541
QIANFAN-85              
1 63171U 25046N   25213.89756731  .00000147  00000+0  20914-3 0  9994
2 63171  88.9858 333.6080 0014628 146.3643 213.8440 13.50958008 29537
QIANFAN-86              
1 63172U 25046P   25214.12799286  .00000152  00000+0  21642-3 0  9999
2 63172  88.9860 333.4434 0012448 148.6984 211.4911 13.50958362 29645
QIANFAN-87              
1 63173U 25046Q   25213.87688131  .00000164  00000+0  23455-3 0  9994
2 63173  88.9856 333.5858 0013244 145.1597 215.0423 13.50956143 29541
QIANFAN-88              
1 63174U 25046R   25213.89353798  .00000154  00000+0  22004-3 0  9993
2 63174  88.9859 333.5355 0013437 152.4909 207.6956 13.50958505 29574
QIANFAN-89              
1 63175U 25046S   25213.78232776  .00000164  00000+0  23487-3 0  9991
2 63175  88.9859 333.7359 0017953 145.7704 214.4608 13.50963255 29451
QIANFAN-90              
1 63176U 25046T   25214.47770577  .00000152  00000+0  21702-3 0  9990
2 63176  88.9860 333.6368 0014989 141.4885 218.7339 13.50961973 29567
